start=new Date('2023-02-09T00:00:00.000Z').valueOf();
sats=[{"LAUNCH_DATE":"2021-03-11","NORAD_CAT_ID":"47800","PERIOD":"95.592","PERIAPSIS":"546.237","CLASSIFICATION_TYPE":"U","ECCENTRICITY":"0.00013660","SITE":"AFETR","MEAN_MOTION_DOT":"0.00003477","OBJECT_NAME":"STARLINK-2381","RCS_SIZE":"LARGE","MEAN_ELEMENT_THEORY":"SGP4","APOAPSIS":"548.129","TLE_LINE2":"2 47800  53.0517 241.2555 0001366  89.9710 270.1435 15.06409906107332","BSTAR":"0.00025213000000","OBJECT_ID":"2021-018P","SEMIMAJOR_AXIS":"6925.318","CENTER_NAME":"EARTH","TIME_SYSTEM":"UTC","MEAN_MOTION":"15.06409906","EPHEMERIS_TYPE":"0","EPOCH":"2023-02-08T20:13:07.024224","MEAN_ANOMALY":"270.1435","DECAY_DATE":null,"MEAN_MOTION_DDOT":"0.0000000000000","ARG_OF_PERICENTER":"89.9710","INCLINATION":"53.0517","TLE_LINE1":"1 47800U 21018P   23039.84244241  .00003477  00000-0  25213-3 0  9994","FILE":"3780893","REV_AT_EPOCH":"10733","GP_ID":"224858362","ELEMENT_SET_NO":"999","RA_OF_ASC_NODE":"241.2555","COUNTRY_CODE":"US","OBJECT_TYPE":"PAYLOAD","REF_FRAME":"TEME"},{"RA_OF_ASC_NODE":"246.1889","REV_AT_EPOCH":"10727","FILE":"3780893","GP_ID":"224858113","ELEMENT_SET_NO":"999","OBJECT_TYPE":"PAYLOAD","REF_FRAME":"TEME","COUNTRY_CODE":"US","INCLINATION":"53.0514","TLE_LINE1":"1 47801U 21018Q   23039.87700991  .00001121  00000-0  94142-4 0  9999","DECAY_DATE":null,"ARG_OF_PERICENTER":"100.6667","MEAN_MOTION_DDOT":"0.0000000000000","BSTAR":"0.00009414200000","SEMIMAJOR_AXIS":"6925.365","OBJECT_ID":"2021-018Q","CENTER_NAME":"EARTH","TIME_SYSTEM":"UTC","MEAN_MOTION":"15.06394506","RCS_SIZE":"LARGE","MEAN_ELEMENT_THEORY":"SGP4","APOAPSIS":"548.096","TLE_LINE2":"2 47801  53.0514 246.1889 0001250 100.6667 259.4463 15.06394506107271","MEAN_ANOMALY":"259.4463","EPHEMERIS_TYPE":"0","EPOCH":"2023-02-08T21:02:53.656224","CLASSIFICATION_TYPE":"U","PERIAPSIS":"546.365","SITE":"AFETR","ECCENTRICITY":"0.00012500","LAUNCH_DATE":"2021-03-11","NORAD_CAT_ID":"47801","PERIOD":"95.592","OBJECT_NAME":"STARLINK-2382","MEAN_MOTION_DOT":"0.00001121"},{"MEAN_MOTION_DOT":"0.00009801","OBJECT_NAME":"STARLINK-2383","LAUNCH_DATE":"2021-03-11","PERIOD":"95.592","NORAD_CAT_ID":"47802","CLASSIFICATION_TYPE":"U","PERIAPSIS":"546.358","ECCENTRICITY":"0.00012460","SITE":"AFETR","EPHEMERIS_TYPE":"0","EPOCH":"2023-02-08T22:09:13.615200","MEAN_ANOMALY":"273.8642","APOAPSIS":"548.083","MEAN_ELEMENT_THEORY":"SGP4","RCS_SIZE":"LARGE","TLE_LINE2":"2 47802  53.0518 265.8955 0001246  86.2489 273.8642 15.06397723107008","SEMIMAJOR_AXIS":"6925.356","CENTER_NAME":"EARTH","OBJECT_ID":"2021-018R","BSTAR":"0.00067601000000","MEAN_MOTION":"15.06397723","TIME_SYSTEM":"UTC","DECAY_DATE":null,"MEAN_MOTION_DDOT":"0.0000000000000","ARG_OF_PERICENTER":"86.2489","TLE_LINE1":"1 47802U 21018R   23039.92307425  .00009801  00000-0  67601-3 0  9993","INCLINATION":"53.0518","COUNTRY_CODE":"US","REF_FRAME":"TEME","OBJECT_TYPE":"PAYLOAD","GP_ID":"224856861","FILE":"3780893","REV_AT_EPOCH":"10700","ELEMENT_SET_NO":"999","RA_OF_ASC_NODE":"265.8955"},{"REF_FRAME":"TEME","OBJECT_TYPE":"PAYLOAD","COUNTRY_CODE":"US","RA_OF_ASC_NODE":"241.5065","GP_ID":"224857611","FILE":"3780893","REV_AT_EPOCH":"10732","ELEMENT_SET_NO":"999","TLE_LINE1":"1 47803U 21018S   23039.78715370 -.00000326  00000-0 -30194-5 0  9994","INCLINATION":"53.0505","DECAY_DATE":null,"ARG_OF_PERICENTER":"90.1738","MEAN_MOTION_DDOT":"0.0000000000000","MEAN_ANOMALY":"269.9390","EPHEMERIS_TYPE":"0","EPOCH":"2023-02-08T18:53:30.079680","OBJECT_ID":"2021-018S","SEMIMAJOR_AXIS":"6925.357","CENTER_NAME":"EARTH","BSTAR":"-0.00000301940000","MEAN_MOTION":"15.06397121","TIME_SYSTEM":"UTC","APOAPSIS":"548.060","MEAN_ELEMENT_THEORY":"SGP4","RCS_SIZE":"LARGE","TLE_LINE2":"2 47803  53.0505 241.5065 0001209  90.1738 269.9390 15.06397121107321","OBJECT_NAME":"STARLINK-2384","MEAN_MOTION_DOT":"-0.00000326","CLASSIFICATION_TYPE":"U","PERIAPSIS":"546.385","SITE":"AFETR","ECCENTRICITY":"0.00012090","LAUNCH_DATE":"2021-03-11","PERIOD":"95.592","NORAD_CAT_ID":"47803"},{"REF_FRAME":"TEME","OBJECT_TYPE":"PAYLOAD","COUNTRY_CODE":"US","RA_OF_ASC_NODE":"241.1410","GP_ID":"224857863","REV_AT_EPOCH":"10733","FILE":"3780893","ELEMENT_SET_NO":"999","TLE_LINE1":"1 47804U 21018T   23039.86824232  .00001634  00000-0  12857-3 0  9997","INCLINATION":"53.0524","DECAY_DATE":null,"ARG_OF_PERICENTER":"88.8483","MEAN_MOTION_DDOT":"0.0000000000000","MEAN_ANOMALY":"271.2630","EPHEMERIS_TYPE":"0","EPOCH":"2023-02-08T20:50:16.136448","SEMIMAJOR_AXIS":"6925.342","CENTER_NAME":"EARTH","OBJECT_ID":"2021-018T","BSTAR":"0.00012857000000","MEAN_MOTION":"15.06402219","TIME_SYSTEM":"UTC","MEAN_ELEMENT_THEORY":"SGP4","APOAPSIS":"547.955","RCS_SIZE":"LARGE","TLE_LINE2":"2 47804  53.0524 241.1410 0001080  88.8483 271.2630 15.06402219107330","OBJECT_NAME":"STARLINK-2385","MEAN_MOTION_DOT":"0.00001634","PERIAPSIS":"546.459","CLASSIFICATION_TYPE":"U","ECCENTRICITY":"0.00010800","SITE":"AFETR","LAUNCH_DATE":"2021-03-11","PERIOD":"95.592","NORAD_CAT_ID":"47804"},{"INCLINATION":"53.0512","TLE_LINE1":"1 47805U 21018U   23039.83509681  .00000510  00000-0  53100-4 0  9992","DECAY_DATE":null,"MEAN_MOTION_DDOT":"0.0000000000000","ARG_OF_PERICENTER":"99.9967","RA_OF_ASC_NODE":"241.5315","REV_AT_EPOCH":"10733","FILE":"3780893","GP_ID":"224858613","ELEMENT_SET_NO":"999","OBJECT_TYPE":"PAYLOAD","REF_FRAME":"TEME","COUNTRY_CODE":"US","PERIAPSIS":"546.486","CLASSIFICATION_TYPE":"U","ECCENTRICITY":"0.00010390","SITE":"AFETR","LAUNCH_DATE":"2021-03-11","NORAD_CAT_ID":"47805","PERIOD":"95.592","OBJECT_NAME":"STARLINK-2386","MEAN_MOTION_DOT":"0.00000510","BSTAR":"0.00005310000000","SEMIMAJOR_AXIS":"6925.341","OBJECT_ID":"2021-018U","CENTER_NAME":"EARTH","TIME_SYSTEM":"UTC","MEAN_MOTION":"15.06402496","RCS_SIZE":"LARGE","APOAPSIS":"547.925","MEAN_ELEMENT_THEORY":"SGP4","TLE_LINE2":"2 47805  53.0512 241.5315 0001039  99.9967 260.1139 15.06402496107338","MEAN_ANOMALY":"260.1139","EPHEMERIS_TYPE":"0","EPOCH":"2023-02-08T20:02:32.364384"},{"TLE_LINE2":"2 47806  53.0496 255.9861 0000941  98.7818 261.3278 15.06402239107194","MEAN_ELEMENT_THEORY":"SGP4","APOAPSIS":"547.858","RCS_SIZE":"LARGE","MEAN_MOTION":"15.06402239","TIME_SYSTEM":"UTC","SEMIMAJOR_AXIS":"6925.342","OBJECT_ID":"2021-018V","CENTER_NAME":"EARTH","BSTAR":"0.00068775000000","EPOCH":"2023-02-08T21:44:00.974976","EPHEMERIS_TYPE":"0","MEAN_ANOMALY":"261.3278","PERIOD":"95.592","NORAD_CAT_ID":"47806","LAUNCH_DATE":"2021-03-11","ECCENTRICITY":"0.00009410","SITE":"AFETR","PERIAPSIS":"546.555","CLASSIFICATION_TYPE":"U","MEAN_MOTION_DOT":"0.00009978","OBJECT_NAME":"STARLINK-2387","ELEMENT_SET_NO":"999","GP_ID":"224857361","FILE":"3780893","REV_AT_EPOCH":"10719","RA_OF_ASC_NODE":"255.9861","COUNTRY_CODE":"US","REF_FRAME":"TEME","OBJECT_TYPE":"PAYLOAD","ARG_OF_PERICENTER":"98.7818","MEAN_MOTION_DDOT":"0.0000000000000","DECAY_DATE":null,"TLE_LINE1":"1 47806U 21018V   23039.90556684  .00009978  00000-0  68775-3 0  9996","INCLINATION":"53.0496"},{"SITE":"AFETR","ECCENTRICITY":"0.00010760","PERIAPSIS":"546.477","CLASSIFICATION_TYPE":"U","PERIOD":"95.592","NORAD_CAT_ID":"47807","LAUNCH_DATE":"2021-03-11","OBJECT_NAME":"STARLINK-2388","MEAN_MOTION_DOT":"0.00000091","MEAN_MOTION":"15.06397170","TIME_SYSTEM":"UTC","SEMIMAJOR_AXIS":"6925.357","OBJECT_ID":"2021-018W","CENTER_NAME":"EARTH","BSTAR":"0.00002501800000","TLE_LINE2":"2 47807  53.0515 231.3179 0001076  90.0872 270.0240 15.06397170107465","MEAN_ELEMENT_THEORY":"SGP4","APOAPSIS":"547.967","RCS_SIZE":"LARGE","MEAN_ANOMALY":"270.0240","EPOCH":"2023-02-08T19:53:12.826752","EPHEMERIS_TYPE":"0","TLE_LINE1":"1 47807U 21018W   23039.82862068  .00000091  00000-0  25018-4 0  9995","INCLINATION":"53.0515","MEAN_MOTION_DDOT":"0.0000000000000","ARG_OF_PERICENTER":"90.0872","DECAY_DATE":null,"RA_OF_ASC_NODE":"231.3179","ELEMENT_SET_NO":"999","GP_ID":"224857112","FILE":"3780893","REV_AT_EPOCH":"10746","REF_FRAME":"TEME","OBJECT_TYPE":"PAYLOAD","COUNTRY_CODE":"US"},{"ECCENTRICITY":"0.00011650","SITE":"AFETR","PERIAPSIS":"546.398","CLASSIFICATION_TYPE":"U","NORAD_CAT_ID":"47808","PERIOD":"95.592","LAUNCH_DATE":"2021-03-11","OBJECT_NAME":"STARLINK-2389","MEAN_MOTION_DOT":"0.00012090","TIME_SYSTEM":"UTC","MEAN_MOTION":"15.06402757","BSTAR":"0.00082908000000","OBJECT_ID":"2021-018X","SEMIMAJOR_AXIS":"6925.340","CENTER_NAME":"EARTH","TLE_LINE2":"2 47808  53.0485 256.1913 0001165  97.7107 262.4014 15.06402757107188","RCS_SIZE":"LARGE","MEAN_ELEMENT_THEORY":"SGP4","APOAPSIS":"548.012","MEAN_ANOMALY":"262.4014","EPOCH":"2023-02-08T20:35:00.639456","EPHEMERIS_TYPE":"0","INCLINATION":"53.0485","TLE_LINE1":"1 47808U 21018X   23039.85764629  .00012090  00000-0  82908-3 0  9995","ARG_OF_PERICENTER":"97.7107","MEAN_MOTION_DDOT":"0.0000000000000","DECAY_DATE":null,"RA_OF_ASC_NODE":"256.1913","ELEMENT_SET_NO":"999","REV_AT_EPOCH":"10718","FILE":"3780893","GP_ID":"224858363","OBJECT_TYPE":"PAYLOAD","REF_FRAME":"TEME","COUNTRY_CODE":"US"},{"TLE_LINE2":"2 47809  53.0515 260.8671 0001283  77.5170 282.5962 15.06400694107120","RCS_SIZE":"LARGE","APOAPSIS":"548.100","MEAN_ELEMENT_THEORY":"SGP4","TIME_SYSTEM":"UTC","MEAN_MOTION":"15.06400694","BSTAR":"0.00007061500000","CENTER_NAME":"EARTH","SEMIMAJOR_AXIS":"6925.346","OBJECT_ID":"2021-018Y","EPOCH":"2023-02-08T22:16:29.220672","EPHEMERIS_TYPE":"0","MEAN_ANOMALY":"282.5962","NORAD_CAT_ID":"47809","PERIOD":"95.592","LAUNCH_DATE":"2021-03-11","SITE":"AFETR","ECCENTRICITY":"0.00012830","PERIAPSIS":"546.323","CLASSIFICATION_TYPE":"U","MEAN_MOTION_DOT":"0.00000771","OBJECT_NAME":"STARLINK-2390","ELEMENT_SET_NO":"999","REV_AT_EPOCH":"10712","FILE":"3780893","GP_ID":"224858114","RA_OF_ASC_NODE":"260.8671","COUNTRY_CODE":"US","OBJECT_TYPE":"PAYLOAD","REF_FRAME":"TEME","MEAN_MOTION_DDOT":"0.0000000000000","ARG_OF_PERICENTER":"77.5170","DECAY_DATE":null,"INCLINATION":"53.0515","TLE_LINE1":"1 47809U 21018Y   23039.92811598  .00000771  00000-0  70615-4 0  9998"}];
